SL-16 R/B               
1 25407U 98045B   26068.71444668  .00000177  00000+0  11334-3 0  9995
2 25407  71.0118 181.5219 0006733   8.0336 352.0894 14.16190002427103
ISS (ZARYA)             
1 25544U 98067A   26068.70691881  .00007976  00000+0  15510-3 0  9995
2 25544  51.6323  72.2710 0008019 174.6781 185.4294 15.48547200556334
CZ-4B R/B               
1 25732U 99025C   26068.74531664  .00000058  00000+0  49046-4 0  9991
2 25732  98.6626 113.0256 0036733 346.4710 122.2359 14.18265283388174
OKEAN-O                 
1 25860U 99039A   26068.71956871  .00000814  00000+0  11362-3 0  9995
2 25860  97.9442 128.6108 0001271  70.3084 289.8265 14.80335142434391
SL-16 R/B               
1 25861U 99039B   26068.76693248  .00000725  00000+0  98725-4 0  9997
2 25861  97.9966 127.8636 0013506 255.8246 104.1466 14.81731670436878
DELTA 2 R/B             
1 25876U 99041E   26068.93731633  .00001280  00000+0  24427-3 0  9990
2 25876  51.7625 300.2916 0502406 349.1634   9.8786 14.11838499363068
HELIOS 1B               
1 25977U 99064A   26068.71385250  .00002181  00000+0  24578-3 0  9991
2 25977  98.1691 330.9581 0002451  75.0933 285.0554 14.87699059685268
TERRA                   
1 25994U 99068A   26068.92868262  .00000567  00000+0  12454-3 0  9992
2 25994  97.9593 122.3543 0002719 150.7418 312.3442 14.61015031395118
SL-16 R/B               
1 26070U 00006B   26068.51791186 -.00000089  00000+0 -20683-4 0  9992
2 26070  71.0010  98.1989 0016793 190.4760 169.6016 14.15825785348531
TITAN 4B R/B            
1 26474U 00047B   26068.89532739  .00005567  00000+0  34806-3 0  9998
2 26474  67.9901  39.9320 0038624  35.1583 325.2103 15.09565128392946
ENVISAT                 
1 27386U 02009A   26068.89108324  .00000182  00000+0  72747-4 0  9995
2 27386  98.3728  22.4836 0001301  82.8070 343.1988 14.39037082259201
IDEFIX & ARIANE 42P R/B 
1 27422U 02021B   26068.77554362  .00000383  00000+0  16192-3 0  9998
2 27422  98.5868   7.3808 0011576 182.0346 178.0792 14.31026352244037
