CCSDS_OMM_VERS = 2.0
CREATION_DATE  = 
ORIGINATOR     = 

OBJECT_NAME    = SL-16 R/B
OBJECT_ID      = 1998-045B
CENTER_NAME    = EARTH
REF_FRAME      = TEME
TIME_SYSTEM    = UTC
MEAN_ELEMENT_THEORY = SGP/SGP4

EPOCH          = 2026-03-09T17:08:48.193152
MEAN_MOTION    = 14.16190002
ECCENTRICITY   = .00067331
INCLINATION    = 71.0118
RA_OF_ASC_NODE = 181.5219
ARG_OF_PERICENTER = 8.0336
MEAN_ANOMALY   = 352.0894

EPHEMERIS_TYPE = 0
CLASSIFICATION_TYPE = U
NORAD_CAT_ID   = 25407
ELEMENT_SET_NO = 999
REV_AT_EPOCH   = 42710
BSTAR          = .11333787E-3
MEAN_MOTION_DOT = .177E-5
MEAN_MOTION_DDOT = 0

CCSDS_OMM_VERS = 2.0
CREATION_DATE  = 
ORIGINATOR     = 

OBJECT_NAME    = ISS (ZARYA)
OBJECT_ID      = 1998-067A
CENTER_NAME    = EARTH
REF_FRAME      = TEME
TIME_SYSTEM    = UTC
MEAN_ELEMENT_THEORY = SGP/SGP4

EPOCH          = 2026-03-09T16:57:57.785184
MEAN_MOTION    = 15.48547200
ECCENTRICITY   = .00080196
INCLINATION    = 51.6323
RA_OF_ASC_NODE = 72.2710
ARG_OF_PERICENTER = 174.6781
MEAN_ANOMALY   = 185.4294

EPHEMERIS_TYPE = 0
CLASSIFICATION_TYPE = U
NORAD_CAT_ID   = 25544
ELEMENT_SET_NO = 999
REV_AT_EPOCH   = 55633
BSTAR          = .1550955E-3
MEAN_MOTION_DOT = .7976E-4
MEAN_MOTION_DDOT = 0

CCSDS_OMM_VERS = 2.0
CREATION_DATE  = 
ORIGINATOR     = 

OBJECT_NAME    = CZ-4B R/B
OBJECT_ID      = 1999-025C
CENTER_NAME    = EARTH
REF_FRAME      = TEME
TIME_SYSTEM    = UTC
MEAN_ELEMENT_THEORY = SGP/SGP4

EPOCH          = 2026-03-09T17:53:15.357696
MEAN_MOTION    = 14.18265283
ECCENTRICITY   = .00367331
INCLINATION    = 98.6626
RA_OF_ASC_NODE = 113.0256
ARG_OF_PERICENTER = 346.4710
MEAN_ANOMALY   = 122.2359

EPHEMERIS_TYPE = 0
CLASSIFICATION_TYPE = U
NORAD_CAT_ID   = 25732
ELEMENT_SET_NO = 999
REV_AT_EPOCH   = 38817
BSTAR          = .49045944E-4
MEAN_MOTION_DOT = .58E-6
MEAN_MOTION_DDOT = 0

CCSDS_OMM_VERS = 2.0
CREATION_DATE  = 
ORIGINATOR     = 

OBJECT_NAME    = OKEAN-O
OBJECT_ID      = 1999-039A
CENTER_NAME    = EARTH
REF_FRAME      = TEME
TIME_SYSTEM    = UTC
MEAN_ELEMENT_THEORY = SGP/SGP4

EPOCH          = 2026-03-09T17:16:10.736544
MEAN_MOTION    = 14.80335142
ECCENTRICITY   = .00012718
INCLINATION    = 97.9442
RA_OF_ASC_NODE = 128.6108
ARG_OF_PERICENTER = 70.3084
MEAN_ANOMALY   = 289.8265

EPHEMERIS_TYPE = 0
CLASSIFICATION_TYPE = U
NORAD_CAT_ID   = 25860
ELEMENT_SET_NO = 999
REV_AT_EPOCH   = 43439
BSTAR          = .1136203E-3
MEAN_MOTION_DOT = .814E-5
MEAN_MOTION_DDOT = 0

CCSDS_OMM_VERS = 2.0
CREATION_DATE  = 
ORIGINATOR     = 

OBJECT_NAME    = SL-16 R/B
OBJECT_ID      = 1999-039B
CENTER_NAME    = EARTH
REF_FRAME      = TEME
TIME_SYSTEM    = UTC
MEAN_ELEMENT_THEORY = SGP/SGP4

EPOCH          = 2026-03-09T18:24:22.966272
MEAN_MOTION    = 14.81731670
ECCENTRICITY   = .00135065
INCLINATION    = 97.9966
RA_OF_ASC_NODE = 127.8636
ARG_OF_PERICENTER = 255.8246
MEAN_ANOMALY   = 104.1466

EPHEMERIS_TYPE = 0
CLASSIFICATION_TYPE = U
NORAD_CAT_ID   = 25861
ELEMENT_SET_NO = 999
REV_AT_EPOCH   = 43687
BSTAR          = .98724714E-4
MEAN_MOTION_DOT = .725E-5
MEAN_MOTION_DDOT = 0

CCSDS_OMM_VERS = 2.0
CREATION_DATE  = 
ORIGINATOR     = 

OBJECT_NAME    = DELTA 2 R/B
OBJECT_ID      = 1999-041E
CENTER_NAME    = EARTH
REF_FRAME      = TEME
TIME_SYSTEM    = UTC
MEAN_ELEMENT_THEORY = SGP/SGP4

EPOCH          = 2026-03-09T22:29:44.130912
MEAN_MOTION    = 14.11838499
ECCENTRICITY   = .05024067
INCLINATION    = 51.7625
RA_OF_ASC_NODE = 300.2916
ARG_OF_PERICENTER = 349.1634
MEAN_ANOMALY   = 9.8786

EPHEMERIS_TYPE = 0
CLASSIFICATION_TYPE = U
NORAD_CAT_ID   = 25876
ELEMENT_SET_NO = 999
REV_AT_EPOCH   = 36306
BSTAR          = .24427279E-3
MEAN_MOTION_DOT = .128E-4
MEAN_MOTION_DDOT = 0

CCSDS_OMM_VERS = 2.0
CREATION_DATE  = 
ORIGINATOR     = 

OBJECT_NAME    = HELIOS 1B
OBJECT_ID      = 1999-064A
CENTER_NAME    = EARTH
REF_FRAME      = TEME
TIME_SYSTEM    = UTC
MEAN_ELEMENT_THEORY = SGP/SGP4

EPOCH          = 2026-03-09T17:07:56.856000
MEAN_MOTION    = 14.87699059
ECCENTRICITY   = .00024517
INCLINATION    = 98.1691
RA_OF_ASC_NODE = 330.9581
ARG_OF_PERICENTER = 75.0933
MEAN_ANOMALY   = 285.0554

EPHEMERIS_TYPE = 0
CLASSIFICATION_TYPE = U
NORAD_CAT_ID   = 25977
ELEMENT_SET_NO = 999
REV_AT_EPOCH   = 68526
BSTAR          = .24577589E-3
MEAN_MOTION_DOT = .2181E-4
MEAN_MOTION_DDOT = 0

CCSDS_OMM_VERS = 2.0
CREATION_DATE  = 
ORIGINATOR     = 

OBJECT_NAME    = TERRA
OBJECT_ID      = 1999-068A
CENTER_NAME    = EARTH
REF_FRAME      = TEME
TIME_SYSTEM    = UTC
MEAN_ELEMENT_THEORY = SGP/SGP4

EPOCH          = 2026-03-09T22:17:18.178368
MEAN_MOTION    = 14.61015031
ECCENTRICITY   = .00027192
INCLINATION    = 97.9593
RA_OF_ASC_NODE = 122.3543
ARG_OF_PERICENTER = 150.7418
MEAN_ANOMALY   = 312.3442

EPHEMERIS_TYPE = 0
CLASSIFICATION_TYPE = U
NORAD_CAT_ID   = 25994
ELEMENT_SET_NO = 999
REV_AT_EPOCH   = 39511
BSTAR          = .12453868E-3
MEAN_MOTION_DOT = .567E-5
MEAN_MOTION_DDOT = 0

CCSDS_OMM_VERS = 2.0
CREATION_DATE  = 
ORIGINATOR     = 

OBJECT_NAME    = SL-16 R/B
OBJECT_ID      = 2000-006B
CENTER_NAME    = EARTH
REF_FRAME      = TEME
TIME_SYSTEM    = UTC
MEAN_ELEMENT_THEORY = SGP/SGP4

EPOCH          = 2026-03-09T12:25:47.584704
MEAN_MOTION    = 14.15825785
ECCENTRICITY   = .00167935
INCLINATION    = 71.0010
RA_OF_ASC_NODE = 98.1989
ARG_OF_PERICENTER = 190.4760
MEAN_ANOMALY   = 169.6016

EPHEMERIS_TYPE = 0
CLASSIFICATION_TYPE = U
NORAD_CAT_ID   = 26070
ELEMENT_SET_NO = 999
REV_AT_EPOCH   = 34853
BSTAR          = -.2068296E-4
MEAN_MOTION_DOT = -.89E-6
MEAN_MOTION_DDOT = 0

CCSDS_OMM_VERS = 2.0
CREATION_DATE  = 
ORIGINATOR     = 

OBJECT_NAME    = TITAN 4B R/B
OBJECT_ID      = 2000-047B
CENTER_NAME    = EARTH
REF_FRAME      = TEME
TIME_SYSTEM    = UTC
MEAN_ELEMENT_THEORY = SGP/SGP4

EPOCH          = 2026-03-09T21:29:16.286496
MEAN_MOTION    = 15.09565128
ECCENTRICITY   = .00386241
INCLINATION    = 67.9901
RA_OF_ASC_NODE = 39.9320
ARG_OF_PERICENTER = 35.1583
MEAN_ANOMALY   = 325.2103

EPHEMERIS_TYPE = 0
CLASSIFICATION_TYPE = U
NORAD_CAT_ID   = 26474
ELEMENT_SET_NO = 999
REV_AT_EPOCH   = 39294
BSTAR          = .34805691E-3
MEAN_MOTION_DOT = .5567E-4
MEAN_MOTION_DDOT = 0

CCSDS_OMM_VERS = 2.0
CREATION_DATE  = 
ORIGINATOR     = 

OBJECT_NAME    = ENVISAT
OBJECT_ID      = 2002-009A
CENTER_NAME    = EARTH
REF_FRAME      = TEME
TIME_SYSTEM    = UTC
MEAN_ELEMENT_THEORY = SGP/SGP4

EPOCH          = 2026-03-09T21:23:09.591936
MEAN_MOTION    = 14.39037082
ECCENTRICITY   = .00013015
INCLINATION    = 98.3728
RA_OF_ASC_NODE = 22.4836
ARG_OF_PERICENTER = 82.8070
MEAN_ANOMALY   = 343.1988

EPHEMERIS_TYPE = 0
CLASSIFICATION_TYPE = U
NORAD_CAT_ID   = 27386
ELEMENT_SET_NO = 999
REV_AT_EPOCH   = 25920
BSTAR          = .72746525E-4
MEAN_MOTION_DOT = .182E-5
MEAN_MOTION_DDOT = 0

CCSDS_OMM_VERS = 2.0
CREATION_DATE  = 
ORIGINATOR     = 

OBJECT_NAME    = IDEFIX & ARIANE 42P R/B
OBJECT_ID      = 2002-021B
CENTER_NAME    = EARTH
REF_FRAME      = TEME
TIME_SYSTEM    = UTC
MEAN_ELEMENT_THEORY = SGP/SGP4

EPOCH          = 2026-03-09T18:36:46.968768
MEAN_MOTION    = 14.31026352
ECCENTRICITY   = .00115761
INCLINATION    = 98.5868
RA_OF_ASC_NODE = 7.3808
ARG_OF_PERICENTER = 182.0346
MEAN_ANOMALY   = 178.0792

EPHEMERIS_TYPE = 0
CLASSIFICATION_TYPE = U
NORAD_CAT_ID   = 27422
ELEMENT_SET_NO = 999
REV_AT_EPOCH   = 24403
BSTAR          = .16191613E-3
MEAN_MOTION_DOT = .383E-5
MEAN_MOTION_DDOT = 0

